COSMOS 2361             
1 25590U 98076A   24181.94581477  .00000109  00000+0  10178-3 0  9991
2 25590  82.9342  16.5439 0030327 303.0698 176.6754 13.73122984278264
COSMOS 2378             
1 26818U 01023A   24182.14365009  .00000074  00000+0  62823-4 0  9991
2 26818  82.9267  33.0484 0031733 243.4919 237.4799 13.74053095156439
COSMOS 2389             
1 27436U 02026A   24182.21194488  .00000110  00000+0  97952-4 0  9993
2 27436  82.9515 339.6291 0047753 100.2462  72.4479 13.75068337108632
COSMOS 2398             
1 27818U 03023A   24181.86936295  .00000109  00000+0  10258-3 0  9996
2 27818  82.9493 303.8805 0032200 145.4447 328.8579 13.72300215 55338
COSMOS 2407             
1 28380U 04028A   24181.74344618  .00000093  00000+0  78460-4 0  9998
2 28380  82.9599 246.1008 0040696  98.8854  20.8420 13.76216354  1198
COSMOS 2414             
1 28521U 05002A   24182.20074201  .00000090  00000+0  62425-4 0  9999
2 28521  82.9487 225.8822 0039461 211.9527 147.9243 13.87780202984691
COSMOS 2429             
1 32052U 07038A   24182.06362922  .00000096  00000+0  83184-4 0  9999
2 32052  82.9804  14.3978 0039802  78.5247 282.0375 13.75058067843185
COSMOS 2454             
1 35635U 09039A   24181.84647542  .00000113  00000+0  78853-4 0  9998
2 35635  82.9552 211.1179 0020037 148.0835  25.0261 13.89808876757753
COSMOS 2463             
1 36519U 10017A   24181.88979823  .00000076  00000+0  67447-4 0  9997
2 36519  82.9604  56.7236 0035357 322.3146  48.3222 13.71564065709609
